{"type": "FeatureCollection", "features": [ {"type": "Feature", "properties": {"norad_id": 33492, "name": "GOSAT (IBUKI)", "group": "resource", "lat": 16.468419942625356, "lon": 89.23162446263517, "alt_km": 669.3107881056858, "timestamp": "2025-12-08T23:34:03.626218+00:00", "meta": {"OBJECT_NAME": "GOSAT (IBUKI)", "OBJECT_ID": "2009-002A", "EPOCH": "2025-12-08T13:40:26.011200", "MEAN_MOTION": 14.67543603, "ECCENTRICITY": 9.673e-05, "INCLINATION": 98.0769, "RA_OF_ASC_NODE": 91.2311, "ARG_OF_PERICENTER": 88.0959, "MEAN_ANOMALY": 272.0356, "EPHEMERIS_TYPE": 0, "CLASSIFICATION_TYPE": "U", "NORAD_CAT_ID": 33492, "ELEMENT_SET_NO": 999, "REV_AT_EPOCH": 90350, "BSTAR": 0.00032722853, "MEAN_MOTION_DOT": 1.808e-05, "MEAN_MOTION_DDOT": 0}, "tle": {"line1": "1 33492U 09002A   25342.56974550  .00001808  00000+0  32723-3 0  9995", "line2": "2 33492  98.0769  91.2311 0000967  88.0959 272.0356 14.67543603903501"}}, "geometry": {"type": "Point", "coordinates": [89.23162446263517, 16.468419942625356]}}, {"type": "Feature", "properties": {"norad_id": 35681, "name": "DEIMOS-1", "group": "resource", "lat": -5.400361231902798, "lon": 144.4947918156939, "alt_km": 649.1051475107834, "timestamp": "2025-12-08T23:34:03.626229+00:00", "meta": {"OBJECT_NAME": "DEIMOS-1", "OBJECT_ID": "2009-041A", "EPOCH": "2025-12-08T13:49:23.841696", "MEAN_MOTION": 14.74943788, "ECCENTRICITY": 0.00027054, "INCLINATION": 97.7153, "RA_OF_ASC_NODE": 143.3735, "ARG_OF_PERICENTER": 88.4928, "MEAN_ANOMALY": 271.6592, "EPHEMERIS_TYPE": 0, "CLASSIFICATION_TYPE": "U", "NORAD_CAT_ID": 35681, "ELEMENT_SET_NO": 999, "REV_AT_EPOCH": 87878, "BSTAR": 0.00021527145, "MEAN_MOTION_DOT": 1.399e-05, "MEAN_MOTION_DDOT": 0}, "tle": {"line1": "1 35681U 09041A   25342.57597039  .00001399  00000+0  21527-3 0  9999", "line2": "2 35681  97.7153 143.3735 0002705  88.4928 271.6592 14.74943788878781"}}, "geometry": {"type": "Point", "coordinates": [144.4947918156939, -5.400361231902798]}}, {"type": "Feature", "properties": {"norad_id": 35682, "name": "DUBAISAT-1", "group": "resource", "lat": -64.66076816544289, "lon": 130.94662142650887, "alt_km": 647.9201316288381, "timestamp": "2025-12-08T23:34:03.626240+00:00", "meta": {"OBJECT_NAME": "DUBAISAT-1", "OBJECT_ID": "2009-041B", "EPOCH": "2025-12-08T15:43:21.468576", "MEAN_MOTION": 14.74586985, "ECCENTRICITY": 0.00098181, "INCLINATION": 97.979, "RA_OF_ASC_NODE": 113.3952, "ARG_OF_PERICENTER": 328.6971, "MEAN_ANOMALY": 31.3652, "EPHEMERIS_TYPE": 0, "CLASSIFICATION_TYPE": "U", "NORAD_CAT_ID": 35682, "ELEMENT_SET_NO": 999, "REV_AT_EPOCH": 87701, "BSTAR": 0.00039713405, "MEAN_MOTION_DOT": 2.598e-05, "MEAN_MOTION_DDOT": 0}, "tle": {"line1": "1 35682U 09041B   25342.65510959  .00002598  00000+0  39713-3 0  9993", "line2": "2 35682  97.9790 113.3952 0009818 328.6971  31.3652 14.74586985877013"}}, "geometry": {"type": "Point", "coordinates": [130.94662142650887, -64.66076816544289]}}, {"type": "Feature", "properties": {"norad_id": 35931, "name": "OCEANSAT-2", "group": "resource", "lat": 43.858298492397736, "lon": -24.02297976250526, "alt_km": 879.633622153432, "timestamp": "2025-12-08T23:34:03.626251+00:00", "meta": {"OBJECT_NAME": "OCEANSAT-2", "OBJECT_ID": "2009-051A", "EPOCH": "2025-12-08T14:46:41.327904", "MEAN_MOTION": 13.99625607, "ECCENTRICITY": 0.00163797, "INCLINATION": 98.2226, "RA_OF_ASC_NODE": 343.6347, "ARG_OF_PERICENTER": 55.7946, "MEAN_ANOMALY": 304.477, "EPHEMERIS_TYPE": 0, "CLASSIFICATION_TYPE": "U", "NORAD_CAT_ID": 35931, "ELEMENT_SET_NO": 999, "REV_AT_EPOCH": 85267, "BSTAR": -7.4881477e-05, "MEAN_MOTION_DOT": -1.47e-06, "MEAN_MOTION_DDOT": 0}, "tle": {"line1": "1 35931U 09051A   25342.61575611 -.00000147  00000+0 -74881-4 0  9999", "line2": "2 35931  98.2226 343.6347 0016379  55.7946 304.4770 13.99625607852675"}}, "geometry": {"type": "Point", "coordinates": [-24.02297976250526, 43.858298492397736]}}, {"type": "Feature", "properties": {"norad_id": 35946, "name": "WORLDVIEW-2 (WV-2)", "group": "resource", "lat": 11.475461047279742, "lon": 52.38376172162516, "alt_km": 765.9201797617825, "timestamp": "2025-12-08T23:34:03.626262+00:00", "meta": {"OBJECT_NAME": "WORLDVIEW-2 (WV-2)", "OBJECT_ID": "2009-055A", "EPOCH": "2025-12-08T15:09:43.584480", "MEAN_MOTION": 14.37650271, "ECCENTRICITY": 0.00053834, "INCLINATION": 98.4764, "RA_OF_ASC_NODE": 53.7733, "ARG_OF_PERICENTER": 76.7754, "MEAN_ANOMALY": 283.4033, "EPHEMERIS_TYPE": 0, "CLASSIFICATION_TYPE": "U", "NORAD_CAT_ID": 35946, "ELEMENT_SET_NO": 999, "REV_AT_EPOCH": 84826, "BSTAR": 0.00014914338, "MEAN_MOTION_DOT": 4.04e-06, "MEAN_MOTION_DDOT": 0}, "tle": {"line1": "1 35946U 09055A   25342.63175445  .00000404  00000+0  14914-3 0  9996", "line2": "2 35946  98.4764  53.7733 0005383  76.7754 283.4033 14.37650271848267"}}, "geometry": {"type": "Point", "coordinates": [52.38376172162516, 11.475461047279742]}}, {"type": "Feature", "properties": {"norad_id": 36036, "name": "SMOS", "group": "resource", "lat": 18.93540229618719, "lon": 165.16674266445386, "alt_km": 759.2249149380077, "timestamp": "2025-12-08T23:34:03.626273+00:00", "meta": {"OBJECT_NAME": "SMOS", "OBJECT_ID": "2009-059A", "EPOCH": "2025-12-08T11:48:12.393504", "MEAN_MOTION": 14.3973608, "ECCENTRICITY": 0.0001108, "INCLINATION": 98.4383, "RA_OF_ASC_NODE": 167.6032, "ARG_OF_PERICENTER": 85.1871, "MEAN_ANOMALY": 274.9444, "EPHEMERIS_TYPE": 0, "CLASSIFICATION_TYPE": "U", "NORAD_CAT_ID": 36036, "ELEMENT_SET_NO": 999, "REV_AT_EPOCH": 84601, "BSTAR": 0.00026203808, "MEAN_MOTION_DOT": 7.77e-06, "MEAN_MOTION_DDOT": 0}, "tle": {"line1": "1 36036U 09059A   25342.49181011  .00000777  00000+0  26204-3 0  9999", "line2": "2 36036  98.4383 167.6032 0001108  85.1871 274.9444 14.39736080846014"}}, "geometry": {"type": "Point", "coordinates": [165.16674266445386, 18.93540229618719]}}, {"type": "Feature", "properties": {"norad_id": 36110, "name": "YAOGAN-7", "group": "resource", "lat": 50.613916142534265, "lon": -145.1491975581024, "alt_km": 639.3898660834393, "timestamp": "2025-12-08T23:34:03.626284+00:00", "meta": {"OBJECT_NAME": "YAOGAN-7", "OBJECT_ID": "2009-069A", "EPOCH": "2025-12-08T15:12:38.687904", "MEAN_MOTION": 14.77723918, "ECCENTRICITY": 0.0023506, "INCLINATION": 98.0303, "RA_OF_ASC_NODE": 224.4054, "ARG_OF_PERICENTER": 295.2737, "MEAN_ANOMALY": 64.6037, "EPHEMERIS_TYPE": 0, "CLASSIFICATION_TYPE": "U", "NORAD_CAT_ID": 36110, "ELEMENT_SET_NO": 999, "REV_AT_EPOCH": 86148, "BSTAR": 0.00019724373, "MEAN_MOTION_DOT": 1.367e-05, "MEAN_MOTION_DDOT": 0}, "tle": {"line1": "1 36110U 09069A   25342.63378111  .00001367  00000+0  19724-3 0  9993", "line2": "2 36110  98.0303 224.4054 0023506 295.2737  64.6037 14.77723918861480"}}, "geometry": {"type": "Point", "coordinates": [-145.1491975581024, 50.613916142534265]}}, {"type": "Feature", "properties": {"norad_id": 36605, "name": "TANDEM-X", "group": "resource", "lat": 79.43849550419607, "lon": -147.0437376192125, "alt_km": 499.61704923938123, "timestamp": "2025-12-08T23:34:03.626295+00:00", "meta": {"OBJECT_NAME": "TANDEM-X", "OBJECT_ID": "2010-030A", "EPOCH": "2025-12-08T13:39:18.929376", "MEAN_MOTION": 15.19159019, "ECCENTRICITY": 0.00020674, "INCLINATION": 97.4453, "RA_OF_ASC_NODE": 348.0112, "ARG_OF_PERICENTER": 89.3333, "MEAN_ANOMALY": 270.8138, "EPHEMERIS_TYPE": 0, "CLASSIFICATION_TYPE": "U", "NORAD_CAT_ID": 36605, "ELEMENT_SET_NO": 999, "REV_AT_EPOCH": 85770, "BSTAR": 0.00014235004, "MEAN_MOTION_DOT": 2.924e-05, "MEAN_MOTION_DDOT": 0}, "tle": {"line1": "1 36605U 10030A   25342.56896909  .00002924  00000+0  14235-3 0  9996", "line2": "2 36605  97.4453 348.0112 0002067  89.3333 270.8138 15.19159019857704"}}, "geometry": {"type": "Point", "coordinates": [-147.0437376192125, 79.43849550419607]}}, {"type": "Feature", "properties": {"norad_id": 36795, "name": "CARTOSAT-2B", "group": "resource", "lat": -35.1787957052962, "lon": 37.66880172109107, "alt_km": 644.5356900553434, "timestamp": "2025-12-08T23:34:03.626306+00:00", "meta": {"OBJECT_NAME": "CARTOSAT-2B", "OBJECT_ID": "2010-035A", "EPOCH": "2025-12-08T15:36:30.647808", "MEAN_MOTION": 14.787812, "ECCENTRICITY": 0.0012912, "INCLINATION": 97.7858, "RA_OF_ASC_NODE": 31.8136, "ARG_OF_PERICENTER": 89.744, "MEAN_ANOMALY": 270.5251, "EPHEMERIS_TYPE": 0, "CLASSIFICATION_TYPE": "U", "NORAD_CAT_ID": 36795, "ELEMENT_SET_NO": 999, "REV_AT_EPOCH": 83169, "BSTAR": 0.00020930389, "MEAN_MOTION_DOT": 1.49e-05, "MEAN_MOTION_DDOT": 0}, "tle": {"line1": "1 36795U 10035A   25342.65035472  .00001490  00000+0  20930-3 0  9997", "line2": "2 36795  97.7858  31.8136 0012912  89.7440 270.5251 14.78781200831692"}}, "geometry": {"type": "Point", "coordinates": [37.66880172109107, -35.1787957052962]}}, {"type": "Feature", "properties": {"norad_id": 36834, "name": "YAOGAN-10", "group": "resource", "lat": -33.753319919919875, "lon": 8.164684408136408, "alt_km": 621.5891982852709, "timestamp": "2025-12-08T23:34:03.626317+00:00", "meta": {"OBJECT_NAME": "YAOGAN-10", "OBJECT_ID": "2010-038A", "EPOCH": "2025-12-08T14:42:20.155392", "MEAN_MOTION": 14.84584384, "ECCENTRICITY": 0.00015129, "INCLINATION": 97.9144, "RA_OF_ASC_NODE": 2.4641, "ARG_OF_PERICENTER": 84.8642, "MEAN_ANOMALY": 68.8647, "EPHEMERIS_TYPE": 0, "CLASSIFICATION_TYPE": "U", "NORAD_CAT_ID": 36834, "ELEMENT_SET_NO": 999, "REV_AT_EPOCH": 82892, "BSTAR": 0.00038524739, "MEAN_MOTION_DOT": 3.199e-05, "MEAN_MOTION_DDOT": 0}, "tle": {"line1": "1 36834U 10038A   25342.61273328  .00003199  00000+0  38525-3 0  9991", "line2": "2 36834  97.9144   2.4641 0001512  84.8642  68.8647 14.84584384828925"}}, "geometry": {"type": "Point", "coordinates": [8.164684408136408, -33.753319919919875]}}]}